STARLINK-30438          
1 58035U 23156H   24097.31242046  .00026224  00000+0  95550-3 0  9994
2 58035  53.1066 107.0088 0002191  87.6009 272.5241 15.28037962 28647
STARLINK-30437          
1 58036U 23156J   24097.30806573  .00009954  00000+0  37157-3 0  9995
2 58036  53.1057 106.9829 0001772 105.3755 254.7440 15.28018778 28646
STARLINK-30533          
1 58037U 23156K   24098.31064727 -.00000508  00000+0 -15674-4 0  9994
2 58037  53.1080 104.6177 0001730  91.0753 269.0434 15.05570700 28811
STARLINK-30560          
1 58038U 23156L   24098.32627719  .00004274  00000+0  16689-3 0  9990
2 58038  53.1068 102.6680 0001208 100.1460 259.9675 15.28018547 28582
STARLINK-30559          
1 58039U 23156M   24098.39279057  .00000089  00000+0  25286-4 0  9990
2 58039  53.1090 104.4263 0001609  93.0170 267.1003 15.05574160 28813
STARLINK-30555          
1 58040U 23156N   24097.72371665 -.00000686  00000+0 -27919-4 0  9996
2 58040  53.1089 107.3685 0001601  89.1577 270.9596 15.05573253 28723
STARLINK-30542          
1 58041U 23156P   24098.44794838  .00079546  00000+0  35072-2 0  9994
2 58041  53.0630 101.8700 0001618 107.2709 252.8464 15.21108245 28860
STARLINK-30563          
1 58042U 23156Q   24097.73247353  .00001662  00000+0  72676-4 0  9998
2 58042  53.0868 104.6161 0001736  84.7882 275.3314 15.28019801 28767
STARLINK-30564          
1 58043U 23156R   24098.23225260  .00007063  00000+0  26757-3 0  9997
2 58043  53.0879 101.3189 0002189 106.2729 253.8511 15.28001873 28857
STARLINK-30547          
1 58044U 23156S   24097.75175538  .00004479  00000+0  32639-3 0  9990
2 58044  53.1036 106.8188 0001583  88.4649 271.6521 15.05577913 28736
STARLINK-30550          
1 58045U 23156T   24098.35102824 -.00011898  00000+0 -25887-3 0  9998
2 58045  53.0735  35.2423 0001333 105.8374 254.2778 15.42776954 29763
STARLINK-30548          
1 58046U 23156U   24097.71694064  .00000015  00000+0  20221-4 0  9995
2 58046  53.1078 107.3242 0001542  89.8753 270.2413 15.05570917 28672
STARLINK-30529          
1 58047U 23156V   24097.30983853 -.00000034  00000+0  16853-4 0  9996
2 58047  53.1073 109.0473 0001288  90.0511 270.0626 15.05573092 28611
STARLINK-30554          
1 58048U 23156W   24098.43624003 -.00000636  00000+0 -24497-4 0  9993
2 58048  53.1087 103.9924 0001633  97.4700 262.6474 15.05569245 28721
STARLINK-30568          
1 58051U 23158A   24098.38594481  .00001657  00000+0  13769-3 0  9990
2 58051  43.0034 241.3082 0002194 281.1350  78.9245 15.02545527 27865
STARLINK-30575          
1 58052U 23158B   24098.45908547 -.00000603  00000+0 -29561-4 0  9991
2 58052  43.0025 240.9985 0001217 278.9447  81.1257 15.02536875 28045
STARLINK-30577          
1 58053U 23158C   24098.44909372  .00000291  00000+0  36611-4 0  9993
2 58053  43.0004 240.9037 0001318 298.3402  61.7307 15.02536418 28032
STARLINK-30566          
1 58054U 23158D   24097.77766921 -.00416634  00000+0 -33574-1 0  9996
2 58054  43.0023 244.4864 0001251 228.2325 131.8410 15.01541634 27941
STARLINK-30544          
1 58055U 23158E   24098.42578708 -.00000892  00000+0 -50907-4 0  9991
2 58055  43.0059 240.7484 0001764 281.9833  78.0811 15.02543585 27997
STARLINK-30553          
1 58056U 23158F   24098.43577643  .00002743  00000+0  21813-3 0  9998
2 58056  43.0029 240.8214 0001762 268.9210  91.1430 15.02528814 28036
STARLINK-30541          
1 58057U 23158G   24098.43911925  .00003776  00000+0  29464-3 0  9991
2 58057  43.0022 240.8489 0000988 263.8066  96.2664 15.02514638 28030
STARLINK-30573          
1 58058U 23158H   24097.83414952 -.00000260  00000+0 -41689-5 0  9995
2 58058  43.0031 244.0479 0001563 268.7787  91.2877 15.02532130 27958
STARLINK-30582          
1 58059U 23158J   24097.82415582  .00002415  00000+0  19375-3 0  9992
2 58059  43.0024 243.9738 0001848 270.2316  89.8314 15.02541817 27950
STARLINK-30558          
1 58060U 23158K   24098.39593420  .00001744  00000+0  14417-3 0  9991
2 58060  43.0049 241.3685 0002124 276.2765  83.7836 15.02538953 28033
STARLINK-30579          
1 58061U 23158L   24098.35326268  .00000589  00000+0  58698-4 0  9998
2 58061  43.0016 215.7487 0001565 270.3206  89.7457 15.02536173 28314
STARLINK-30588          
1 58062U 23158M   24097.81749751  .00000919  00000+0  83097-4 0  9993
2 58062  43.0019 243.9224 0000823 266.0934  93.9815 15.02537609 27955
STARLINK-30585          
1 58063U 23158N   24097.74103133 -.00000821  00000+0 -45714-4 0  9992
2 58063  43.0028 244.2107 0001584 263.8852  96.1810 15.02532305 27946
STARLINK-30587          
1 58064U 23158P   24098.41913079 -.00000919  00000+0 -52939-4 0  9991
2 58064  43.0027 240.6974 0001312 265.4315  94.6377 15.02532998 27937
STARLINK-30576          
1 58065U 23158Q   24097.84746369 -.00003014  00000+0 -20809-3 0  9993
2 58065  43.0026 244.1504 0001569 265.9703  94.0960 15.02545820 27957
STARLINK-30571          
1 58066U 23158R   24097.73436922  .00000439  00000+0  47569-4 0  9992
2 58066  43.0029 244.1586 0001610 266.6505  93.4153 15.02538812 27945
STARLINK-30567          
1 58067U 23158S   24098.39372151  .00000397  00000+0  44426-4 0  9991
2 58067  43.0001 241.3521 0001093 300.2694  59.8040 15.02527320 28037
STARLINK-30569          
1 58068U 23158T   24098.41246900  .00003252  00000+0  25552-3 0  9998
2 58068  43.0027 240.6454 0001383 284.7721  75.2968 15.02560527 28040
STARLINK-30480          
1 58069U 23158U   24098.50001157  .01033430  00000+0  38462-1 0  9996
2 58069  42.9996 239.7673 0001524 277.3213   5.6492 15.23899379 28050
STARLINK-30532          
1 58070U 23158V   24097.87731210  .00001482  00000+0  12475-3 0  9996
2 58070  43.0029 243.5097 0001893 270.3377  89.7248 15.02539511 27964
STARLINK-30513          
1 58071U 23158W   24098.53405349  .00052775  00000+0  64810-3 0  9993
2 58071  42.9996 159.0393 0003535 298.6348  61.4159 15.59489849 28983
STARLINK-30506          
1 58072U 23158X   24097.67122318  .00001390  00000+0  11797-3 0  9993
2 58072  43.0029 244.5437 0001224 269.4828  90.5874 15.02537905 27930
STARLINK-30604          
1 58075U 23160A   24098.54295453  .00008011  00000+0  60737-3 0  9992
2 58075  43.0041 290.3999 0001751 268.5043  91.5599 15.02540074 27412
STARLINK-30500          
1 58076U 23160B   24098.55283178  .00019702  00000+0  14681-2 0  9990
2 58076  43.0023 289.6106 0000665 261.9666  98.1101 15.02571485 27417
STARLINK-30613          
1 58077U 23160C   24097.93800823  .00012871  00000+0  96678-3 0  9991
2 58077  43.0028 293.5988 0001555 266.8964  93.1700 15.02510057 27361
STARLINK-30597          
1 58078U 23160D   24098.54628340 -.00000890  00000+0 -50782-4 0  9999
2 58078  43.0047 290.4081 0001386 275.3624  84.7060 15.02538035 27454
STARLINK-30598          
1 58079U 23160E   24097.93465873  .00000338  00000+0  40086-4 0  9993
2 58079  43.0021 293.5753 0001587 270.1110  89.9551 15.02540203 27354
STARLINK-30603          
1 58080U 23160F   24098.52963471 -.00002281  00000+0 -15379-3 0  9995
2 58080  43.0027 290.2972 0001466 269.6672  90.4003 15.02539742 27413
STARLINK-30602          
1 58081U 23160G   24098.49624588  .00046182  00000+0  34726-2 0  9997
2 58081  43.0000 290.0295 0002060 278.9021  81.1588 15.01861629 27464
STARLINK-30610          
1 58082U 23160H   24097.92801414  .00005799  00000+0  44384-3 0  9991
2 58082  43.0021 293.5213 0002024 276.6601  83.4011 15.02549177 27351
STARLINK-30551          
1 58083U 23160J   24098.52299877 -.00006421  00000+0 -46098-3 0  9992
2 58083  42.9985 290.2474 0000873  35.4321 324.6580 15.02512031 27453
STARLINK-30586          
1 58084U 23160K   24097.92134344  .00007968  00000+0  60424-3 0  9997
2 58084  43.0023 293.4720 0000815 286.8167  73.2586 15.02535494 27354
STARLINK-30609          
1 58085U 23160L   24098.25039817  .00002136  00000+0  17309-3 0  9990
2 58085  43.0027 291.6406 0001880 268.2523  91.8104 15.02542097 27419
STARLINK-30583          
1 58086U 23160M   24098.51297787  .00002471  00000+0  19791-3 0  9991
2 58086  43.0013 290.1672 0001966 274.9900  85.0717 15.02541414 27464
STARLINK-30557          
1 58087U 23160N   24098.51741929  .00009645  00000+0  72771-3 0  9991
2 58087  42.9986 290.2041 0001833 269.2248  90.8384 15.02553731 27467
STARLINK-30591          
1 58088U 23160P   24097.90802411 -.00005630  00000+0 -40200-3 0  9992
2 58088  43.0024 293.3710 0002156 272.2841  87.7754 15.02537995 27350
STARLINK-30584          
1 58089U 23160Q   24098.50299515  .00000765  00000+0  71716-4 0  9994
2 58089  43.0027 290.0930 0001589 278.3185  81.7477 15.02535399 27418
STARLINK-30590          
1 58090U 23160R   24098.50965029  .00002434  00000+0  19511-3 0  9995
2 58090  43.0023 290.1459 0001787 281.1192  78.9450 15.02547481 27462
STARLINK-30608          
1 58091U 23160S   24098.23375476 -.00000758  00000+0 -41004-4 0  9999
2 58091  43.0041 291.5148 0001715 276.2272  83.8374 15.02533357 27375
STARLINK-30615          
1 58092U 23160T   24098.49666511 -.00152387  00000+0 -11694-1 0  9996
2 58092  43.0011 290.0476 0001699 267.5762  92.4886 15.01944995 27411
STARLINK-30578          
1 58093U 23160U   24097.91667824 -.00023689  00000+0 -17439-2 0  9997
2 58093  43.0013 293.7445 0001831 274.2009 312.4090 15.02546712  5815
STARLINK-30574          
1 58094U 23160V   24097.89470253  .00002230  00000+0  18008-3 0  9994
2 58094  43.0024 293.2704 0001524 271.8446  88.2222 15.02542213 27358
STARLINK-30570          
1 58095U 23160W   24097.89137285  .00001656  00000+0  13762-3 0  9993
2 58095  43.0048 293.2447 0001606 268.6612  91.4047 15.02533562 27357
STARLINK-30581          
1 58096U 23160X   24097.95130950  .00000326  00000+0  39187-4 0  9996
2 58096  43.0045 293.6814 0002074 270.8701  89.1904 15.02534840 27357
STARLINK-30594          
1 58097U 23161A   24097.93451498 -.00003890  00000+0 -12789-3 0  9998
2 58097  53.1047 183.5082 0000951  60.9979 299.1115 15.28011507 27000
